     3.04           N: GNSS NAV DATA    M: MIXED            RINEX VERSION / TYPE
ssrcrin-15.6.1x                         20250101 113000 UTC PGM / RUN BY / DATE 
    18                                                      LEAP SECONDS        
                                                            END OF HEADER       
S23 2025 01 01 11 29 04 0.000000000000E+00 0.000000000000E+00 3.006220000000E+05
     3.866796400000E+04 0.000000000000E+00 0.000000000000E+00 6.300000000000E+01
     1.681330800000E+04 0.000000000000E+00 0.000000000000E+00 3.276700000000E+04
     0.000000000000E+00 0.000000000000E+00 0.000000000000E+00 5.900000000000E+01
R13 2025 01 01 11 45 00-5.500297993422E-05-0.000000000000E+00 3.006000000000E+05
     1.192861865234E+04-1.194707870483E+00-9.313225746155E-10 0.000000000000E+00
    -5.244331054688E+02 2.848074913025E+00-0.000000000000E+00-2.000000000000E+00
     2.251866992188E+04 6.991510391235E-01-2.793967723846E-09 0.000000000000E+00
R03 2025 01 01 11 45 00 1.142565160990E-04 0.000000000000E+00 3.006000000000E+05
     1.988762109375E+04 1.801207542419E+00 0.000000000000E+00 0.000000000000E+00
    -8.655602050781E+03-3.664121627808E-01 1.862645149231E-09 5.000000000000E+00
     1.341896826172E+04-2.922181129456E+00-2.793967723846E-09 0.000000000000E+00
R12 2025 01 01 11 45 00 4.908535629511E-05 9.094947017729E-13 3.006000000000E+05
     4.330195800781E+03-1.015732765198E+00-0.000000000000E+00 0.000000000000E+00
     1.482945214844E+04 2.585460662842E+00-1.862645149231E-09-1.000000000000E+00
     2.031826611328E+04-1.670469284058E+00-1.862645149231E-09 0.000000000000E+00
R22 2025 01 01 11 45 00-5.373172461987E-05-1.818989403546E-12 3.006000000000E+05
     5.037390625000E+03-1.062608718872E+00 0.000000000000E+00 0.000000000000E+00
     1.997400488281E+04-1.766131401062E+00-1.862645149231E-09-3.000000000000E+00
     1.506709814453E+04 2.703136444092E+00-1.862645149231E-09 0.000000000000E+00
R04 2025 01 01 11 45 00 2.708099782467E-04 1.818989403546E-12 3.006000000000E+05
     4.164091308594E+03 3.079332351685E+00-2.793967723846E-09 0.000000000000E+00
    -1.093935937500E+04-3.724756240845E-01 0.000000000000E+00 6.000000000000E+00
     2.269144091797E+04-7.474880218506E-01-9.313225746155E-10 0.000000000000E+00
R21 2025 01 01 11 45 00-1.644585281610E-04-2.728484105319E-12 3.006000000000E+05
    -8.111047363281E+03-1.858845710754E+00-3.725290298462E-09 0.000000000000E+00
     6.814794921875E+03-2.579720497131E+00-1.862645149231E-09 4.000000000000E+00
     2.321066845703E+04 1.055803298950E-01-0.000000000000E+00 0.000000000000E+00
R14 2025 01 01 11 45 00 2.751033753157E-05 0.000000000000E+00 3.006000000000E+05
     1.345136376953E+04-6.746940612793E-01-9.313225746155E-10 0.000000000000E+00
    -1.874732519531E+04 1.334115028381E+00 1.862645149231E-09-7.000000000000E+00
     1.089983935547E+04 3.126524925232E+00-9.313225746155E-10 0.000000000000E+00
S21 2025 01 01 11 30 24 0.000000000000E+00 0.000000000000E+00 3.006380000000E+05
     4.200468400000E+04 0.000000000000E+00 0.000000000000E+00 6.300000000000E+01
    -3.674932960000E+03 0.000000000000E+00 0.000000000000E+00 3.276700000000E+04
     0.000000000000E+00 0.000000000000E+00 0.000000000000E+00 1.010000000000E+02
S36 2025 01 01 11 30 40 0.000000000000E+00 0.000000000000E+00 3.006540000000E+05
     4.200368800000E+04 0.000000000000E+00 0.000000000000E+00 6.300000000000E+01
     3.674846960000E+03 0.000000000000E+00 0.000000000000E+00 3.276700000000E+04
     0.000000000000E+00 0.000000000000E+00 0.000000000000E+00 1.670000000000E+02
R02 2025 01 01 11 45 00-3.879237920046E-05-0.000000000000E+00 3.006300000000E+05
     2.515596826172E+04-5.499525070190E-01 4.656612873077E-09 0.000000000000E+00
    -9.175776367188E+02-1.328992843628E-01 2.793967723846E-09-4.000000000000E+00
    -3.830666015625E+03-3.543288230896E+00-2.793967723846E-09 0.000000000000E+00
E02 2025 01 01 11 20 00 1.867245300673E-04 2.870592652471E-12 0.000000000000E+00
     1.190000000000E+02-1.509375000000E+01 3.345496496215E-09 6.110485010342E-01
    -7.040798664093E-07 5.104901501909E-04 6.843358278275E-06 5.440610549927E+03
     3.000000000000E+05-1.676380634308E-08 2.416802510348E+00 1.862645149231E-09
     9.646431753631E-01 1.965000000000E+02 6.871900282001E-01-5.432011979388E-09
    -6.796711681751E-10 5.170000000000E+02 2.347000000000E+03
     3.120000000000E+00 0.000000000000E+00-3.958120942116E-09-3.958120942116E-09
     3.006650000000E+05
E30 2025 01 01 11 20 00-1.089880941436E-03-4.003197773272E-11 0.000000000000E+00
     1.190000000000E+02-1.621875000000E+01 3.474430438260E-09-4.681915677038E-01
    -7.338821887970E-07 5.760804051533E-04 6.346032023430E-06 5.440610391617E+03
     3.000000000000E+05 2.048909664154E-08 2.416234358317E+00 1.862645149231E-08
     9.620429262523E-01 2.025312500000E+02 9.713627852733E-01-5.520587097469E-09
    -6.578845463892E-10 5.170000000000E+02 2.347000000000E+03
     3.120000000000E+00 0.000000000000E+00-9.313225746155E-10-2.328306436539E-10
     3.006650000000E+05
E18 2025 01 01 11 20 00 9.492230601609E-04 4.271782927390E-11 0.000000000000E+00
     1.190000000000E+02 3.473125000000E+02 3.418713831725E-09-2.222372497958E+00
     1.432746648788E-05 1.621092045680E-01 1.463107764721E-05 5.289425344467E+03
     3.000000000000E+05-3.376975655556E-06-2.841421983237E+00 3.315508365631E-07
     8.635048313451E-01 9.987500000000E+01 2.772535906541E+00-6.635990701363E-09
    -2.010798043524E-10 5.170000000000E+02 2.347000000000E+03
     3.120000000000E+00 1.300000000000E+02-3.259629011154E-09-3.259629011154E-09
     3.006650000000E+05
S23 2025 01 01 11 31 12 0.000000000000E+00 0.000000000000E+00 3.006830000000E+05
     3.866796400000E+04 0.000000000000E+00 0.000000000000E+00 6.300000000000E+01
     1.681330800000E+04 0.000000000000E+00 0.000000000000E+00 3.276700000000E+04
     0.000000000000E+00 0.000000000000E+00 0.000000000000E+00 6.000000000000E+01
E02 2025 01 01 11 20 00 1.867244718596E-04 2.870592652471E-12 0.000000000000E+00
     1.190000000000E+02-1.509375000000E+01 3.345496496215E-09 6.110485010342E-01
    -7.040798664093E-07 5.104901501909E-04 6.843358278275E-06 5.440610549927E+03
     3.000000000000E+05-1.676380634308E-08 2.416802510348E+00 1.862645149231E-09
     9.646431753631E-01 1.965000000000E+02 6.871900282001E-01-5.432011979388E-09
    -6.796711681751E-10 2.580000000000E+02 2.347000000000E+03
     3.120000000000E+00 0.000000000000E+00-3.958120942116E-09 0.000000000000E+00
     3.007400000000E+05
E30 2025 01 01 11 20 00-1.089881814551E-03-4.001776687801E-11 0.000000000000E+00
     1.190000000000E+02-1.621875000000E+01 3.474430438260E-09-4.681915677038E-01
    -7.338821887970E-07 5.760804051533E-04 6.346032023430E-06 5.440610391617E+03
     3.000000000000E+05 2.048909664154E-08 2.416234358317E+00 1.862645149231E-08
     9.620429262523E-01 2.025312500000E+02 9.713627852733E-01-5.520587097469E-09
    -6.578845463892E-10 2.580000000000E+02 2.347000000000E+03
     3.120000000000E+00 0.000000000000E+00-9.313225746155E-10 0.000000000000E+00
     3.007400000000E+05
E18 2025 01 01 11 20 00 9.492229437456E-04 4.271782927390E-11 0.000000000000E+00
     1.190000000000E+02 3.473125000000E+02 3.418713831725E-09-2.222372497958E+00
     1.432746648788E-05 1.621092045680E-01 1.463107764721E-05 5.289425344467E+03
     3.000000000000E+05-3.376975655556E-06-2.841421983237E+00 3.315508365631E-07
     8.635048313451E-01 9.987500000000E+01 2.772535906541E+00-6.635990701363E-09
    -2.010798043524E-10 2.580000000000E+02 2.347000000000E+03
     3.120000000000E+00 1.600000000000E+01-3.259629011154E-09 0.000000000000E+00
     3.007400000000E+05
G25 2025 01 01 12 00 00 4.973746836185E-04-5.684341886081E-13 0.000000000000E+00
     3.800000000000E+01-1.259375000000E+01 5.254147427759E-09-7.576827327328E-01
    -5.811452865601E-07 1.230268075597E-02 6.036832928658E-06 5.153676076889E+03
     3.024000000000E+05-4.842877388000E-08 2.306371225002E+00 2.160668373108E-07
     9.489009991811E-01 2.561250000000E+02 1.106498252654E+00-8.391063807203E-09
    -4.935919886590E-10 1.000000000000E+00 2.347000000000E+03 0.000000000000E+00
     2.000000000000E+00 0.000000000000E+00 5.587935447693E-09 3.800000000000E+01
     3.007980000000E+05 4.000000000000E+00
S21 2025 01 01 11 33 20 0.000000000000E+00 0.000000000000E+00 3.008000000000E+05
     4.200468400000E+04 0.000000000000E+00 0.000000000000E+00 6.300000000000E+01
    -3.674932960000E+03 0.000000000000E+00 0.000000000000E+00 3.276700000000E+04
     0.000000000000E+00 0.000000000000E+00 0.000000000000E+00 1.020000000000E+02
S23 2025 01 01 11 33 20 0.000000000000E+00 0.000000000000E+00 3.008050000000E+05
     3.866796400000E+04 0.000000000000E+00 0.000000000000E+00 6.300000000000E+01
     1.681330800000E+04 0.000000000000E+00 0.000000000000E+00 3.276700000000E+04
     0.000000000000E+00 0.000000000000E+00 0.000000000000E+00 6.100000000000E+01
S36 2025 01 01 11 33 20 0.000000000000E+00 0.000000000000E+00 3.008060000000E+05
     4.200368800000E+04 0.000000000000E+00 0.000000000000E+00 6.300000000000E+01
     3.674846960000E+03 0.000000000000E+00 0.000000000000E+00 3.276700000000E+04
     0.000000000000E+00 0.000000000000E+00 0.000000000000E+00 1.680000000000E+02
C44 2025 01 01 11 00 00 6.982861086726E-04 1.114131009672E-11 0.000000000000E+00
     1.000000000000E+00 1.905312500000E+02 3.660509617776E-09-1.050054554621E+00
     9.430572390556E-06 7.130712037906E-04 9.155832231045E-06 5.282629281998E+03
     2.988000000000E+05 1.583248376846E-08-2.434411391943E+00-8.847564458847E-09
     9.497790440752E-01 1.672968750000E+02 5.515335601009E-01-6.736709182407E-09
     8.214627886510E-11 0.000000000000E+00 9.910000000000E+02 0.000000000000E+00
     2.000000000000E+00 0.000000000000E+00-1.200000000000E-09-1.200000000000E-09
     3.007980000000E+05 1.000000000000E+00
